[{"OBJECT_NAME":"STARLINK-31485","OBJECT_ID":"2024-056N","EPOCH":"2026-03-08T12:40:43.421376","MEAN_MOTION":15.27580311,"ECCENTRICITY":0.00014106,"INCLINATION":43.0014,"RA_OF_ASC_NODE":237.5287,"ARG_OF_PERICENTER":254.6385,"MEAN_ANOMALY":105.431,"EPHEMERIS_TYPE":0,"CLASSIFICATION_TYPE":"U","NORAD_CAT_ID":59308,"ELEMENT_SET_NO":999,"REV_AT_EPOCH":11097,"BSTAR":1.5700811e-5,"MEAN_MOTION_DOT":1.7e-6,"MEAN_MOTION_DDOT":0},{"OBJECT_NAME":"OBJECT P","OBJECT_ID":"2025-155P","EPOCH":"2026-03-09T22:15:55.475424","MEAN_MOTION":15.2544775,"ECCENTRICITY":0.00080527,"INCLINATION":97.4496,"RA_OF_ASC_NODE":37.0295,"ARG_OF_PERICENTER":153.0691,"MEAN_ANOMALY":207.0966,"EPHEMERIS_TYPE":0,"CLASSIFICATION_TYPE":"U","NORAD_CAT_ID":64889,"ELEMENT_SET_NO":999,"REV_AT_EPOCH":6557,"BSTAR":0.00031377111,"MEAN_MOTION_DOT":7.871e-5,"MEAN_MOTION_DDOT":0}]
